[{"OBJECT_NAME":"STARLINK-35181","OBJECT_ID":"2025-211Q","EPOCH":"2026-03-09T16:28:13.238976","MEAN_MOTION":15.0565216,"ECCENTRICITY":9.335e-5,"INCLINATION":97.6025,"RA_OF_ASC_NODE":114.0977,"ARG_OF_PERICENTER":139.3212,"MEAN_ANOMALY":220.8085,"EPHEMERIS_TYPE":0,"CLASSIFICATION_TYPE":"U","NORAD_CAT_ID":65666,"ELEMENT_SET_NO":999,"REV_AT_EPOCH":2704,"BSTAR":0.00022959952,"MEAN_MOTION_DOT":3.254e-5,"MEAN_MOTION_DDOT":0},{"OBJECT_NAME":"COSMOS 886 DEB","OBJECT_ID":"1976-126S","EPOCH":"2026-03-09T21:56:14.599968","MEAN_MOTION":12.77359426,"ECCENTRICITY":0.10555572,"INCLINATION":65.8446,"RA_OF_ASC_NODE":295.88,"ARG_OF_PERICENTER":53.4024,"MEAN_ANOMALY":315.9492,"EPHEMERIS_TYPE":0,"CLASSIFICATION_TYPE":"U","NORAD_CAT_ID":9721,"ELEMENT_SET_NO":999,"REV_AT_EPOCH":28368,"BSTAR":0.00022738028,"MEAN_MOTION_DOT":5.23e-6,"MEAN_MOTION_DDOT":0}]
